[{"OBJECT_NAME":"DAMPE","OBJECT_ID":"2015-078A","EPOCH":"2026-03-09T23:55:00.527232","MEAN_MOTION":15.30502084,"ECCENTRICITY":0.00138005,"INCLINATION":97.4588,"RA_OF_ASC_NODE":73.9866,"ARG_OF_PERICENTER":70.6942,"MEAN_ANOMALY":289.579,"EPHEMERIS_TYPE":0,"CLASSIFICATION_TYPE":"U","NORAD_CAT_ID":41173,"ELEMENT_SET_NO":999,"REV_AT_EPOCH":56937,"BSTAR":9.1158173e-5,"MEAN_MOTION_DOT":2.617e-5,"MEAN_MOTION_DDOT":0},{"OBJECT_NAME":"STARLINK-30485","OBJECT_ID":"2023-147H","EPOCH":"2026-03-09T22:00:01.999584","MEAN_MOTION":15.26757008,"ECCENTRICITY":0.00017388,"INCLINATION":42.9999,"RA_OF_ASC_NODE":323.8255,"ARG_OF_PERICENTER":290.0372,"MEAN_ANOMALY":78.2448,"EPHEMERIS_TYPE":0,"CLASSIFICATION_TYPE":"U","NORAD_CAT_ID":57920,"ELEMENT_SET_NO":999,"REV_AT_EPOCH":577,"BSTAR":0.0017900753,"MEAN_MOTION_DOT":0.00048096,"MEAN_MOTION_DDOT":0}]
